H1 CPF 01  gfz 2021 10 06 00  7791 tandemx   
H2 1003001  6202 36605    2021 10 06 00 59 42 2021 10 11 00 00 42   120 1 1  0 0 0
H9
10 0 59496  75582.000000  0    3579713.679  -4266867.304   4044524.821
10 0 59496  75702.000000  0    3061952.211  -3944593.267   4735509.782
10 0 59496  75822.000000  0    2497009.810  -3543908.256   5343150.325
10 0 59496  75942.000000  0    1896092.607  -3071109.353   5856785.602
10 0 59496  76062.000000  0    1270905.119  -2533948.857   6267417.402
10 0 59496  76182.000000  0     633419.489  -1941502.133   6567861.534
10 0 59496  76302.000000  0      -4355.395  -1304010.854   6752867.266
10 0 59496  76422.000000  0    -630599.815   -632703.696   6819203.776
10 0 59496  76542.000000  0   -1233901.224     60402.687   6765712.752
10 0 59496  76662.000000  0   -1803461.515    762718.456   6593327.282
10 0 59496  76782.000000  0   -2329289.795   1461308.610   6305056.527
10 0 59496  76902.000000  0   -2802378.188   2143130.313   5905936.460
10 0 59496  77022.000000  0   -3214857.718   2795276.450   5402947.699
10 0 59496  77142.000000  0   -3560132.681   3405221.852   4804899.809
10 0 59496  77262.000000  0   -3832990.509   3961066.878   4122282.662
10 0 59496  77382.000000  0   -4029684.359   4451774.604   3367086.832
10 0 59496  77502.000000  0   -4147986.629   4867396.136   2552594.607
10 0 59496  77622.000000  0   -4187211.249   5199277.605   1693144.181
10 0 59496  77742.000000  0   -4148204.376   5440243.863    803873.290
10 0 59496  77862.000000  0   -4033304.787   5584755.028    -99553.195
10 0 59496  77982.000000  0   -3846273.603   5629032.251  -1001228.253
10 0 59496  78102.000000  0   -3592193.649   5571146.753  -1885293.541
10 0 59496  78222.000000  0   -3277341.916   5411070.024  -2736227.035
10 0 59496  78342.000000  0   -2909038.851   5150686.565  -3539121.031
10 0 59496  78462.000000  0   -2495480.315   4793766.872  -4279945.660
10 0 59496  78582.000000  0   -2045555.448   4345903.828  -4945791.832
10 0 59496  78702.000000  0   -1568655.938   3814415.818  -5525089.075
10 0 59496  78822.000000  0   -1074481.337   3208219.499  -6007798.620
10 0 59496  78942.000000  0    -572843.135   2537672.621  -6385577.950
10 0 59496  79062.000000  0     -73472.282   1814391.973  -6651912.936
10 0 59496  79182.000000  0     414165.079   1051051.363  -6802219.162
10 0 59496  79302.000000  0     881042.358    261161.850  -6833913.048
10 0 59496  79422.000000  0    1318735.963   -541163.146  -6746451.525
10 0 59496  79542.000000  0    1719573.121  -1341454.594  -6541338.794
10 0 59496  79662.000000  0    2076763.022  -2125141.480  -6222103.065
10 0 59496  79782.000000  0    2384510.761  -2877809.440  -5794243.080
10 0 59496  79902.000000  0    2638111.851  -3585462.819  -5265145.046
10 0 59496  80022.000000  0    2834026.336  -4234786.389  -4643965.402
10 0 59496  80142.000000  0    2969928.913  -4813397.067  -3941481.632
10 0 59496  80262.000000  0    3044735.702  -5310084.377  -3169916.563
10 0 59496  80382.000000  0    3058606.881  -5715036.866  -2342733.862
10 0 59496  80502.000000  0    3012924.135  -6020045.154  -1474406.508
10 0 59496  80622.000000  0    2910243.278  -6218677.776   -580163.406
10 0 59496  80742.000000  0    2754221.276  -6306424.361    324282.736
10 0 59496  80862.000000  0    2549519.896  -6280800.162   1223018.143
10 0 59496  80982.000000  0    2301689.123  -6141412.352   2100216.544
10 0 59496  81102.000000  0    2017031.744  -5889982.156   2940428.301
10 0 59496  81222.000000  0    1702453.611  -5530323.337   3728859.745
10 0 59496  81342.000000  0    1365303.170  -5068280.057   4451638.575
10 0 59496  81462.000000  0    1013205.325  -4511625.022   5096060.416
10 0 59496  81582.000000  0     653892.831  -3869920.996   5650813.492
10 0 59496  81702.000000  0     295038.617  -3154345.936   6106175.013
10 0 59496  81822.000000  0     -55905.530  -2377489.418   6454175.095
10 0 59496  81942.000000  0    -391861.191  -1553126.157   6688729.261
10 0 59496  82062.000000  0    -706263.834   -695969.548   6805739.477
10 0 59496  82182.000000  0    -993189.644    178592.530   6803162.388
10 0 59496  82302.000000  0   -1247466.464   1054774.442   6681042.714
10 0 59496  82422.000000  0   -1464766.614   1916677.191   6441512.128
10 0 59496  82542.000000  0   -1641680.712   2748576.291   6088754.525
10 0 59496  82662.000000  0   -1775771.588   3535209.295   5628937.159
10 0 59496  82782.000000  0   -1865606.726   4262057.859   5070108.557
10 0 59496  82902.000000  0   -1910769.650   4915621.010   4422064.549
10 0 59496  83022.000000  0   -1911849.323   5483673.495   3696181.154
10 0 59496  83142.000000  0   -1870407.675   5955503.348   2905217.579
10 0 59496  83262.000000  0   -1788926.552   6322122.661   2063091.720
10 0 59496  83382.000000  0   -1670733.973   6576447.778   1184632.303
10 0 59496  83502.000000  0   -1519910.979   6713442.939    285312.063
10 0 59496  83622.000000  0   -1341182.584   6730224.105   -619031.879
10 0 59496  83742.000000  0   -1139795.140   6626121.265  -1512486.641
10 0 59496  83862.000000  0    -921382.095   6402692.448  -2379355.023
10 0 59496  83982.000000  0    -691824.029   6063690.899  -3204437.511
10 0 59496  84102.000000  0    -457106.001   5614991.207  -3973300.667
10 0 59496  84222.000000  0    -223175.351   5064476.152  -4672529.440
10 0 59496  84342.000000  0       4196.535   4421885.944  -5289957.482
10 0 59496  84462.000000  0     219545.781   3698635.141  -5814872.122
10 0 59496  84582.000000  0     417837.653   2907600.325  -6238191.096
10 0 59496  84702.000000  0     594575.188   2062884.398  -6552608.048
10 0 59496  84822.000000  0     745893.813   1179563.840  -6752707.063
10 0 59496  84942.000000  0     868640.231    273421.603  -6835046.675
10 0 59496  85062.000000  0     960434.294   -639330.290  -6798212.676
10 0 59496  85182.000000  0    1019713.023  -1542334.765  -6642838.521
10 0 59496  85302.000000  0    1045756.465  -2419374.234  -6371594.401
10 0 59496  85422.000000  0    1038695.865  -3254654.203  -5989148.194
10 0 59496  85542.000000  0     999502.583  -4033085.468  -5502095.150
10 0 59496  85662.000000  0     929958.308  -4740556.627  -4918853.536
10 0 59496  85782.000000  0     832607.903  -5364192.518  -4249530.839
10 0 59496  85902.000000  0     710694.079  -5892596.208  -3505759.591
10 0 59496  86022.000000  0     568075.512  -6316067.424  -2700503.250
10 0 59496  86142.000000  0     409130.263  -6626792.777  -1847835.974
10 0 59496  86262.000000  0     238646.197  -6819003.430   -962697.848
10 0 59496  86382.000000  0      61700.565  -6889093.520    -60630.009
10 0 59497    102.000000  0    -116468.121  -6835696.451    842503.632
10 0 59497    222.000000  0    -290592.538  -6659717.678   1730802.744
10 0 59497    342.000000  0    -455510.219  -6364321.974   2588620.042
10 0 59497    462.000000  0    -606294.657  -5954873.964   3400846.963
10 0 59497    582.000000  0    -738379.823  -5438832.179   4153186.797
10 0 59497    702.000000  0    -847676.446  -4825604.674   4832409.276
10 0 59497    822.000000  0    -930676.125  -4126367.890   5426584.361
10 0 59497    942.000000  0    -984540.983  -3353853.576   5925291.044
10 0 59497   1062.000000  0   -1007177.386  -2522106.501   6319796.495
10 0 59497   1182.000000  0    -997291.313  -1646222.119   6603201.117
10 0 59497   1302.000000  0    -954425.451   -742070.142   6770553.127
10 0 59497   1422.000000  0    -878978.223    173994.879   6818930.744
10 0 59497   1542.000000  0    -772203.087   1085429.551   6747490.005
10 0 59497   1662.000000  0    -636187.294   1975800.093   6557478.757
10 0 59497   1782.000000  0    -473811.351   2829078.268   6252216.021
10 0 59497   1902.000000  0    -288690.065   3629930.201   5837037.693
10 0 59497   2022.000000  0     -85096.400   4363994.570   5319208.309
10 0 59497   2142.000000  0     132131.336   5018144.354   4707800.070
10 0 59497   2262.000000  0     357697.424   5580730.045   4013539.462
10 0 59497   2382.000000  0     585968.733   6041793.406   3248621.407
10 0 59497   2502.000000  0     811104.835   6393255.833   2426501.658
10 0 59497   2622.000000  0    1027197.525   6629072.933   1561654.093
10 0 59497   2742.000000  0    1228412.309   6745343.933    669310.469
10 0 59497   2862.000000  0    1409130.808   6740380.152   -234815.431
10 0 59497   2982.000000  0    1564089.782   6614728.757  -1134812.761
10 0 59497   3102.000000  0    1688512.578   6371151.826  -2014861.431
10 0 59497   3222.000000  0    1778230.527   6014562.172  -2859517.144
10 0 59497   3342.000000  0    1829791.113   5551916.820  -3653987.926
10 0 59497   3462.000000  0    1840550.343   4992070.675  -4384395.858
10 0 59497   3582.000000  0    1808747.094   4345594.624  -5038017.689
10 0 59497   3702.000000  0    1733557.778   3624564.898  -5603500.059
10 0 59497   3822.000000  0    1615131.259   2842329.269  -6071048.123
10 0 59497   3942.000000  0    1454602.352   2013253.601  -6432584.423
10 0 59497   4062.000000  0    1254085.132   1152456.465  -6681876.159
10 0 59497   4182.000000  0    1016646.596    275535.652  -6814632.998
10 0 59497   4302.000000  0     746259.813   -601710.398  -6828573.016
10 0 59497   4422.000000  0     447737.985  -1463561.326  -6723456.388
10 0 59497   4542.000000  0     126651.053  -2294648.292  -6501087.876
10 0 59497   4662.000000  0    -210774.638  -3080220.786  -6165291.141
10 0 59497   4782.000000  0    -557773.477  -3806405.768  -5721850.572
10 0 59497   4902.000000  0    -907170.966  -4460451.279  -5178421.113
10 0 59497   5022.000000  0   -1251526.617  -5030953.452  -4544408.259
10 0 59497   5142.000000  0   -1583287.494  -5508062.388  -3830816.480
10 0 59497   5262.000000  0   -1894948.989  -5883661.750  -3050067.475
10 0 59497   5382.000000  0   -2179219.281  -6151517.956  -2215790.858
10 0 59497   5502.000000  0   -2429184.130  -6307395.852  -1342589.791
10 0 59497   5622.000000  0   -2638467.869  -6349137.078   -445784.396
99
